[{"OBJECT_NAME":"STARLINK-30770","OBJECT_ID":"2023-162Q","EPOCH":"2026-03-09T22:00:01.999584","MEAN_MOTION":15.24100693,"ECCENTRICITY":0.0001196,"INCLINATION":43.0011,"RA_OF_ASC_NODE":131.178,"ARG_OF_PERICENTER":269.1911,"MEAN_ANOMALY":28.4248,"EPHEMERIS_TYPE":0,"CLASSIFICATION_TYPE":"U","NORAD_CAT_ID":58132,"ELEMENT_SET_NO":999,"REV_AT_EPOCH":572,"BSTAR":0.047198157,"MEAN_MOTION_DOT":0.0128197,"MEAN_MOTION_DDOT":0},{"OBJECT_NAME":"H-2A R\/B","OBJECT_ID":"2018-084L","EPOCH":"2026-03-09T14:28:20.133120","MEAN_MOTION":15.41344491,"ECCENTRICITY":0.0025468,"INCLINATION":98.8729,"RA_OF_ASC_NODE":285.9721,"ARG_OF_PERICENTER":25.6211,"MEAN_ANOMALY":334.6287,"EPHEMERIS_TYPE":0,"CLASSIFICATION_TYPE":"U","NORAD_CAT_ID":43682,"ELEMENT_SET_NO":999,"REV_AT_EPOCH":40576,"BSTAR":0.00049941,"MEAN_MOTION_DOT":0.0002099,"MEAN_MOTION_DDOT":0}]
